{"idElset":"51aab969-df61-4b55-9de9-8faa739e2c1d",
"classificationMarking":"U",
"satNo":40505,
"epoch":"2025-01-15T20:44:59.776800Z",
"meanMotion":1.00264903,
"idOnOrbit":"40505",
"uct":false,
"eccentricity":2.732E-4,
"inclination":0.031,
"raan":60.1369,
"argOfPerigee":218.0019,
"meanAnomaly":188.6439,
"revNo":0,
"agom":0.0409,
"ballisticCoeff":0.010000000000000002,
"semiMajorAxis":42166.66134596529,
"apogee":42178.18127784501,
"perigee":42155.14141408557,
"origObjectId":"40505",
"line1":"1 40505U 15012A   25015.86458075 +.00000000 +40900-1 +10000-1 4 99998",
"line2":"2 40505   0.0310  60.1369 0002732 218.0019 188.6439 01.00264903000004",
"createdAt":"2025-01-15T21:04:41.671Z",
"createdBy":"system.dnd",
"origin":"EXO",
"source":"SSDP",
"dataMode":"REAL",
"ephemType":4,
"origNetwork":"OPS1"}